NUSAT-47                
1 66743U 25276CF  26198.17457789  .00002925  00000+0  13662-3 0  9990
2 66743  97.4178 271.3092 0000676 187.5441 172.5785 15.20596838 34983
NUSAT-53 (JANE GOODALL) 
1 68432U 26067S   26198.83694381  .00002998  00000+0  14712-3 0  9997
2 68432  97.4578 156.9222 0000343 325.0938  35.0274 15.18865227 16599
NUSAT-54 (BRANCA MARQU*)
1 68442U 26067AC  26198.83004562  .00002855  00000+0  14367-3 0  9992
2 68442  97.4561 156.7545 0003531 350.7303   9.3865 15.18010854 16588
