{"fetched_at":"2026-07-18T06:28:18.941Z","source":"https://celestrak.org/NORAD/elements/gp.php?NAME=NUSAT&FORMAT=JSON","constellation":"satellogic","records":[{"OBJECT_NAME":"NUSAT-47","OBJECT_ID":"2025-276CF","EPOCH":"2026-07-17T04:11:23.529696","CLASSIFICATION_TYPE":"U","MEAN_MOTION":15.20596838,"ECCENTRICITY":0.00006769,"INCLINATION":97.4178,"RA_OF_ASC_NODE":271.3092,"ARG_OF_PERICENTER":187.5441,"MEAN_ANOMALY":172.5785,"EPHEMERIS_TYPE":0,"NORAD_CAT_ID":66743,"ELEMENT_SET_NO":999,"REV_AT_EPOCH":3498,"BSTAR":0.00013661515,"MEAN_MOTION_DOT":0.00002925,"MEAN_MOTION_DDOT":0},{"OBJECT_NAME":"NUSAT-53 (JANE GOODALL)","OBJECT_ID":"2026-067S","EPOCH":"2026-07-17T20:05:11.945184","CLASSIFICATION_TYPE":"U","MEAN_MOTION":15.18865227,"ECCENTRICITY":0.00003433,"INCLINATION":97.4578,"RA_OF_ASC_NODE":156.9222,"ARG_OF_PERICENTER":325.0938,"MEAN_ANOMALY":35.0274,"EPHEMERIS_TYPE":0,"NORAD_CAT_ID":68432,"ELEMENT_SET_NO":999,"REV_AT_EPOCH":1659,"BSTAR":0.0001471182,"MEAN_MOTION_DOT":0.00002998,"MEAN_MOTION_DDOT":0},{"OBJECT_NAME":"NUSAT-54 (BRANCA MARQUES)","OBJECT_ID":"2026-067AC","EPOCH":"2026-07-17T19:55:15.941568","CLASSIFICATION_TYPE":"U","MEAN_MOTION":15.18010854,"ECCENTRICITY":0.00035316,"INCLINATION":97.4561,"RA_OF_ASC_NODE":156.7545,"ARG_OF_PERICENTER":350.7303,"MEAN_ANOMALY":9.3865,"EPHEMERIS_TYPE":0,"NORAD_CAT_ID":68442,"ELEMENT_SET_NO":999,"REV_AT_EPOCH":1658,"BSTAR":0.0001436706,"MEAN_MOTION_DOT":0.00002855,"MEAN_MOTION_DDOT":0}]}
